{"type": "FeatureCollection", "features": [ {"type": "Feature", "properties": {"norad_id": 36278, "name": "FENGYUN 1C DEB", "group": "fengyun-1c-debris", "lat": -66.83441675228855, "lon": 77.58290291973921, "alt_km": 797.7170501391156, "timestamp": "2025-12-26T23:26:42.415547+00:00", "meta": {"OBJECT_NAME": "FENGYUN 1C DEB", "OBJECT_ID": "1999-025DXF", "EPOCH": "2025-12-25T12:23:20.936256", "MEAN_MOTION": 14.17404058, "ECCENTRICITY": 0.0060493, "INCLINATION": 99.1253, "RA_OF_ASC_NODE": 278.1472, "ARG_OF_PERICENTER": 254.2677, "MEAN_ANOMALY": 105.1819, "EPHEMERIS_TYPE": 0, "CLASSIFICATION_TYPE": "U", "NORAD_CAT_ID": 36278, "ELEMENT_SET_NO": 999, "REV_AT_EPOCH": 93657, "BSTAR": 0.0004649, "MEAN_MOTION_DOT": 9.11e-06, "MEAN_MOTION_DDOT": 0}, "tle": {"line1": "1 36278U 99025DXF 25359.51621454  .00000911  00000+0  46490-3 0  9999", "line2": "2 36278  99.1253 278.1472 0060493 254.2677 105.1819 14.17404058936572"}}, "geometry": {"type": "Point", "coordinates": [77.58290291973921, -66.83441675228855]}}, {"type": "Feature", "properties": {"norad_id": 36279, "name": "FENGYUN 1C DEB", "group": "fengyun-1c-debris", "lat": 42.8983989270671, "lon": 166.44853532117233, "alt_km": 862.9568025079534, "timestamp": "2025-12-26T23:26:42.415556+00:00", "meta": {"OBJECT_NAME": "FENGYUN 1C DEB", "OBJECT_ID": "1999-025DXG", "EPOCH": "2025-12-24T04:36:30.849408", "MEAN_MOTION": 14.1473428, "ECCENTRICITY": 0.00624156, "INCLINATION": 98.5623, "RA_OF_ASC_NODE": 335.7298, "ARG_OF_PERICENTER": 22.9202, "MEAN_ANOMALY": 337.4736, "EPHEMERIS_TYPE": 0, "CLASSIFICATION_TYPE": "U", "NORAD_CAT_ID": 36279, "ELEMENT_SET_NO": 999, "REV_AT_EPOCH": 89201, "BSTAR": 0.00014307987, "MEAN_MOTION_DOT": 2.39e-06, "MEAN_MOTION_DDOT": 0}, "tle": {"line1": "1 36279U 99025DXG 25358.19202372  .00000239  00000+0  14308-3 0  9993", "line2": "2 36279  98.5623 335.7298 0062415  22.9202 337.4736 14.14734280892011"}}, "geometry": {"type": "Point", "coordinates": [166.44853532117233, 42.8983989270671]}}, {"type": "Feature", "properties": {"norad_id": 36280, "name": "FENGYUN 1C DEB", "group": "fengyun-1c-debris", "lat": -77.41842966489469, "lon": 73.33443414776251, "alt_km": 879.7417078653498, "timestamp": "2025-12-26T23:26:42.415565+00:00", "meta": {"OBJECT_NAME": "FENGYUN 1C DEB", "OBJECT_ID": "1999-025DXH", "EPOCH": "2025-12-24T22:59:16.157760", "MEAN_MOTION": 14.09776084, "ECCENTRICITY": 0.00626128, "INCLINATION": 98.7659, "RA_OF_ASC_NODE": 27.633, "ARG_OF_PERICENTER": 30.8932, "MEAN_ANOMALY": 87.4685, "EPHEMERIS_TYPE": 0, "CLASSIFICATION_TYPE": "U", "NORAD_CAT_ID": 36280, "ELEMENT_SET_NO": 999, "REV_AT_EPOCH": 86526, "BSTAR": 0.00090348933, "MEAN_MOTION_DOT": 1.574e-05, "MEAN_MOTION_DDOT": 0}, "tle": {"line1": "1 36280U 99025DXH 25358.95782590  .00001574  00000+0  90349-3 0  9996", "line2": "2 36280  98.7659  27.6330 0062612  30.8932  87.4685 14.09776084865269"}}, "geometry": {"type": "Point", "coordinates": [73.33443414776251, -77.41842966489469]}}, {"type": "Feature", "properties": {"norad_id": 36281, "name": "FENGYUN 1C DEB", "group": "fengyun-1c-debris", "lat": -30.89989921144404, "lon": 96.57594369559902, "alt_km": 1196.1557921020458, "timestamp": "2025-12-26T23:26:42.415574+00:00", "meta": {"OBJECT_NAME": "FENGYUN 1C DEB", "OBJECT_ID": "1999-025DXJ", "EPOCH": "2025-12-26T13:36:40.014720", "MEAN_MOTION": 13.60344701, "ECCENTRICITY": 0.029262, "INCLINATION": 99.2589, "RA_OF_ASC_NODE": 281.79, "ARG_OF_PERICENTER": 75.2289, "MEAN_ANOMALY": 288.108, "EPHEMERIS_TYPE": 0, "CLASSIFICATION_TYPE": "U", "NORAD_CAT_ID": 36281, "ELEMENT_SET_NO": 999, "REV_AT_EPOCH": 84705, "BSTAR": 0.0039892, "MEAN_MOTION_DOT": 3.935e-05, "MEAN_MOTION_DDOT": 0}, "tle": {"line1": "1 36281U 99025DXJ 25360.56712980  .00003935  00000+0  39892-2 0  9991", "line2": "2 36281  99.2589 281.7900 0292620  75.2289 288.1080 13.60344701847055"}}, "geometry": {"type": "Point", "coordinates": [96.57594369559902, -30.89989921144404]}}, {"type": "Feature", "properties": {"norad_id": 36283, "name": "FENGYUN 1C DEB", "group": "fengyun-1c-debris", "lat": -29.38875703359621, "lon": -25.40760840064247, "alt_km": 513.8587163251786, "timestamp": "2025-12-26T23:26:42.415583+00:00", "meta": {"OBJECT_NAME": "FENGYUN 1C DEB", "OBJECT_ID": "1999-025DXL", "EPOCH": "2025-12-26T15:36:31.008096", "MEAN_MOTION": 15.07090772, "ECCENTRICITY": 0.0065559, "INCLINATION": 99.4228, "RA_OF_ASC_NODE": 328.8263, "ARG_OF_PERICENTER": 6.7735, "MEAN_ANOMALY": 353.4357, "EPHEMERIS_TYPE": 0, "CLASSIFICATION_TYPE": "U", "NORAD_CAT_ID": 36283, "ELEMENT_SET_NO": 999, "REV_AT_EPOCH": 66875, "BSTAR": 0.0022988, "MEAN_MOTION_DOT": 0.00036316, "MEAN_MOTION_DDOT": 0}, "tle": {"line1": "1 36283U 99025DXL 25360.65035889  .00036316  00000+0  22988-2 0  9996", "line2": "2 36283  99.4228 328.8263 0065559   6.7735 353.4357 15.07090772668758"}}, "geometry": {"type": "Point", "coordinates": [-25.40760840064247, -29.38875703359621]}}, {"type": "Feature", "properties": {"norad_id": 36644, "name": "FENGYUN 1C DEB", "group": "fengyun-1c-debris", "lat": -21.638728702871404, "lon": 140.97174315523088, "alt_km": 1247.3079771174052, "timestamp": "2025-12-26T23:26:42.415592+00:00", "meta": {"OBJECT_NAME": "FENGYUN 1C DEB", "OBJECT_ID": "1999-025DXN", "EPOCH": "2025-12-20T03:15:14.582880", "MEAN_MOTION": 13.5921712, "ECCENTRICITY": 0.0285778, "INCLINATION": 98.4233, "RA_OF_ASC_NODE": 131.7114, "ARG_OF_PERICENTER": 160.4918, "MEAN_ANOMALY": 200.7431, "EPHEMERIS_TYPE": 0, "CLASSIFICATION_TYPE": "U", "NORAD_CAT_ID": 36644, "ELEMENT_SET_NO": 999, "REV_AT_EPOCH": 61668, "BSTAR": 0.0010197403, "MEAN_MOTION_DOT": 9.49e-06, "MEAN_MOTION_DDOT": 0}, "tle": {"line1": "1 36644U 99025DXN 25354.13558545  .00000949  00000+0  10197-2 0  9994", "line2": "2 36644  98.4233 131.7114 0285778 160.4918 200.7431 13.59217120616683"}}, "geometry": {"type": "Point", "coordinates": [140.97174315523088, -21.638728702871404]}}, {"type": "Feature", "properties": {"norad_id": 36647, "name": "FENGYUN 1C DEB", "group": "fengyun-1c-debris", "lat": -31.09168193793553, "lon": -46.90520219028819, "alt_km": 816.8070649245146, "timestamp": "2025-12-26T23:26:42.415601+00:00", "meta": {"OBJECT_NAME": "FENGYUN 1C DEB", "OBJECT_ID": "1999-025DXR", "EPOCH": "2025-12-17T15:22:01.202880", "MEAN_MOTION": 13.88856712, "ECCENTRICITY": 0.02401846, "INCLINATION": 96.1202, "RA_OF_ASC_NODE": 130.6548, "ARG_OF_PERICENTER": 285.5466, "MEAN_ANOMALY": 71.9303, "EPHEMERIS_TYPE": 0, "CLASSIFICATION_TYPE": "U", "NORAD_CAT_ID": 36647, "ELEMENT_SET_NO": 999, "REV_AT_EPOCH": 30480, "BSTAR": 0.0022455743, "MEAN_MOTION_DOT": 3.394e-05, "MEAN_MOTION_DDOT": 0}, "tle": {"line1": "1 36647U 99025DXR 25351.64029170  .00003394  00000+0  22456-2 0  9995", "line2": "2 36647  96.1202 130.6548 0240184 285.5466  71.9303 13.88856712304807"}}, "geometry": {"type": "Point", "coordinates": [-46.90520219028819, -31.09168193793553]}}, {"type": "Feature", "properties": {"norad_id": 36652, "name": "FENGYUN 1C DEB", "group": "fengyun-1c-debris", "lat": -31.52648935214482, "lon": 88.90306748855554, "alt_km": 786.4022195063499, "timestamp": "2025-12-26T23:26:42.415609+00:00", "meta": {"OBJECT_NAME": "FENGYUN 1C DEB", "OBJECT_ID": "1999-025DXW", "EPOCH": "2025-12-26T11:46:49.502208", "MEAN_MOTION": 14.22914584, "ECCENTRICITY": 0.0051062, "INCLINATION": 98.9402, "RA_OF_ASC_NODE": 82.8685, "ARG_OF_PERICENTER": 312.2046, "MEAN_ANOMALY": 47.4803, "EPHEMERIS_TYPE": 0, "CLASSIFICATION_TYPE": "U", "NORAD_CAT_ID": 36652, "ELEMENT_SET_NO": 999, "REV_AT_EPOCH": 64520, "BSTAR": 0.0017383, "MEAN_MOTION_DOT": 3.917e-05, "MEAN_MOTION_DDOT": 0}, "tle": {"line1": "1 36652U 99025DXW 25360.49085072  .00003917  00000+0  17383-2 0  9991", "line2": "2 36652  98.9402  82.8685 0051062 312.2046  47.4803 14.22914584645208"}}, "geometry": {"type": "Point", "coordinates": [88.90306748855554, -31.52648935214482]}}, {"type": "Feature", "properties": {"norad_id": 36657, "name": "FENGYUN 1C DEB", "group": "fengyun-1c-debris", "lat": 3.2451132498917805, "lon": -25.510901046412016, "alt_km": 743.4851382499583, "timestamp": "2025-12-26T23:26:42.415618+00:00", "meta": {"OBJECT_NAME": "FENGYUN 1C DEB", "OBJECT_ID": "1999-025DYB", "EPOCH": "2025-12-24T16:34:37.790688", "MEAN_MOTION": 14.65600132, "ECCENTRICITY": 0.01054242, "INCLINATION": 99.4135, "RA_OF_ASC_NODE": 151.3338, "ARG_OF_PERICENTER": 30.9032, "MEAN_ANOMALY": 329.8315, "EPHEMERIS_TYPE": 0, "CLASSIFICATION_TYPE": "U", "NORAD_CAT_ID": 36657, "ELEMENT_SET_NO": 999, "REV_AT_EPOCH": 66431, "BSTAR": 0.000583973, "MEAN_MOTION_DOT": 3.376e-05, "MEAN_MOTION_DDOT": 0}, "tle": {"line1": "1 36657U 99025DYB 25358.69071517  .00003376  00000+0  58397-3 0  9994", "line2": "2 36657  99.4135 151.3338 0105424  30.9032 329.8315 14.65600132664316"}}, "geometry": {"type": "Point", "coordinates": [-25.510901046412016, 3.2451132498917805]}}, {"type": "Feature", "properties": {"norad_id": 36659, "name": "FENGYUN 1C DEB", "group": "fengyun-1c-debris", "lat": 50.90101476173159, "lon": -162.42229787902744, "alt_km": 932.4986637442971, "timestamp": "2025-12-26T23:26:42.415627+00:00", "meta": {"OBJECT_NAME": "FENGYUN 1C DEB", "OBJECT_ID": "1999-025DYD", "EPOCH": "2025-12-18T07:09:04.054176", "MEAN_MOTION": 13.87384482, "ECCENTRICITY": 0.01357919, "INCLINATION": 99.8541, "RA_OF_ASC_NODE": 356.081, "ARG_OF_PERICENTER": 60.2917, "MEAN_ANOMALY": 301.1674, "EPHEMERIS_TYPE": 0, "CLASSIFICATION_TYPE": "U", "NORAD_CAT_ID": 36659, "ELEMENT_SET_NO": 999, "REV_AT_EPOCH": 60502, "BSTAR": 0.00061832075, "MEAN_MOTION_DOT": 7.35e-06, "MEAN_MOTION_DDOT": 0}, "tle": {"line1": "1 36659U 99025DYD 25352.29796359  .00000735  00000+0  61832-3 0  9998", "line2": "2 36659  99.8541 356.0810 0135791  60.2917 301.1674 13.87384482605024"}}, "geometry": {"type": "Point", "coordinates": [-162.42229787902744, 50.90101476173159]}}]}